*******************************************************************************
 Revised : Jul 31, 2013                  Sun                                 10

 PHYSICAL PROPERTIES (revised Jan 16, 2014):
  GM (10^11 km^3/s^2)   = 1.3271244004193938  Mass (10^30 kg)   ~ 1.988544
  Radius (photosphere)  = 6.963(10^5) km  Angular diam at 1 AU  = 1919.3"
  Solar Radius (IAU)    = 6.955(10^5) km  Mean density          = 1.408 g/cm^3
  Surface gravity       =  274.0 m/s^2    Moment of inertia     = 0.059
  Escape velocity       =  617.7 km/s     Adopted sidereal per  = 25.38 d
  Pole (RA,DEC in deg.) =  286.13,63.87   Obliquity to ecliptic = 7 deg 15'        
  Solar constant (1 AU) = 1367.6 W/m^2    Solar lumin.(erg/s)   =  3.846(10^33)
  Mass-energy conv rate = 4.3(10^12 gm/s) Effective temp (K)    =  5778
  Surf. temp (photosphr)= 6600 K (bottom) Surf. temp (photosphr)=  4400 K (top)
  Photospheric depth    = ~400 km         Chromospheric depth   = ~2500 km
  Sunspot cycle         = 11.4 yr         Cycle 22 sunspot min. =  1991 A.D.

  Motn. rel to nrby strs= apex : RA=271 deg; DEC=+30 deg
                          speed: 19.4 km/s = 0.0112 AU/day
  Motn. rel to 2.73K BB = apex : l=264.7+-0.8; b=48.2+-0.5
                          speed: 369 +-11 km/s
*******************************************************************************
 
 
*******************************************************************************
Ephemeris / WWW_USER Tue May 22 16:42:11 2018 Pasadena, USA      / Horizons    
*******************************************************************************
Target body name: Sun (10)                        {source: DE431mx}
Center body name: Earth (399)                     {source: DE431mx}
Center-site name: GEOCENTRIC
*******************************************************************************
Start time      : A.D. 2015-Jul-03 03:00:00.0000 UT      
Stop  time      : A.D. 2035-Jul-03 03:00:00.0000 UT      
Step-size       : 8000 steps
*******************************************************************************
Target pole/equ : IAU_SUN                         {East-longitude positive}
Target radii    : 696000.0 x 696000.0 x 696000.0 k{Equator, meridian, pole}    
Center geodetic : 0.00000000,0.00000000,0.0000000 {E-lon(deg),Lat(deg),Alt(km)}
Center cylindric: 0.00000000,0.00000000,0.0000000 {E-lon(deg),Dxy(km),Dz(km)}
Center pole/equ : High-precision EOP model        {East-longitude positive}
Center radii    : 6378.1 x 6378.1 x 6356.8 km     {Equator, meridian, pole}    
Target primary  : Sun
Vis. interferer : MOON (R_eq= 1737.400) km        {source: DE431mx}
Rel. light bend : Sun, EARTH                      {source: DE431mx}
Rel. lght bnd GM: 1.3271E+11, 3.9860E+05 km^3/s^2                              
Atmos refraction: NO (AIRLESS)
RA format       : HMS
Time format     : CAL 
EOP file        : eop.180518.p180809                                           
EOP coverage    : DATA-BASED 1962-JAN-20 TO 2018-MAY-18. PREDICTS-> 2018-AUG-08
Units conversion: 1 au= 149597870.700 km, c= 299792.458 km/s, 1 day= 86400.0 s 
Table cut-offs 1: Elevation (-90.0deg=NO ),Airmass (>38.000=NO), Daylight (NO )
Table cut-offs 2: Solar elongation (  0.0,180.0=NO ),Local Hour Angle( 0.0=NO )
Table cut-offs 3: RA/DEC angular rate (     0.0=NO )                           
*******************************************************************************
 Date__(UT)__HR:MN:SC.fff     R.A._(ICRF/J2000.0)_DEC
*****************************************************
$$SOE
 2016-Sep-09 18:32:24.000     11 13 09.74 +05 01 42.3
 2016-Sep-10 16:27:18.000     11 16 26.59 +04 40 56.0
 2016-Sep-11 14:22:12.000     11 19 43.32 +04 20 05.8
 2016-Sep-12 12:17:06.000     11 22 59.95 +03 59 11.9
 2016-Sep-13 10:12:00.000     11 26 16.49 +03 38 14.5
 2016-Sep-14 08:06:54.000     11 29 32.97 +03 17 13.9
 2016-Sep-15 06:01:48.000     11 32 49.39 +02 56 10.4
 2016-Sep-16 03:56:42.000     11 36 05.78 +02 35 04.0
 2016-Sep-17 01:51:36.000     11 39 22.16 +02 13 55.2
 2016-Sep-17 23:46:30.000     11 42 38.54 +01 52 44.1
 2016-Sep-18 21:41:24.000     11 45 54.94 +01 31 31.0
 2016-Sep-19 19:36:18.000     11 49 11.39 +01 10 16.1
 2016-Sep-20 17:31:12.000     11 52 27.90 +00 48 59.6
 2016-Sep-21 15:26:06.000     11 55 44.49 +00 27 41.9
 2016-Sep-22 13:21:00.000     11 59 01.17 +00 06 23.0
 2016-Sep-23 11:15:54.000     12 02 17.96 -00 14 56.6
 2016-Sep-24 09:10:48.000     12 05 34.89 -00 36 16.8
 2016-Sep-25 07:05:42.000     12 08 51.95 -00 57 37.3
 2016-Sep-26 05:00:36.000     12 12 09.18 -01 18 57.8
 2016-Sep-27 02:55:30.000     12 15 26.57 -01 40 18.0
 2016-Sep-28 00:50:24.000     12 18 44.15 -02 01 37.7
 2016-Sep-28 22:45:18.000     12 22 01.92 -02 22 56.7
 2016-Sep-29 20:40:12.000     12 25 19.91 -02 44 14.5
 2016-Sep-30 18:35:06.000     12 28 38.11 -03 05 31.0
 2016-Oct-01 16:30:00.000     12 31 56.56 -03 26 45.9
 2016-Oct-02 14:24:54.000     12 35 15.25 -03 47 58.9
 2016-Oct-03 12:19:48.000     12 38 34.21 -04 09 09.6
 2016-Oct-04 10:14:42.000     12 41 53.44 -04 30 17.9
 2016-Oct-05 08:09:36.000     12 45 12.97 -04 51 23.5
 2016-Oct-06 06:04:30.000     12 48 32.79 -05 12 25.9
 2016-Oct-07 03:59:24.000     12 51 52.93 -05 33 25.1
 2016-Oct-08 01:54:18.000     12 55 13.40 -05 54 20.6
 2016-Oct-08 23:49:12.000     12 58 34.21 -06 15 12.2
 2016-Oct-09 21:44:06.000     13 01 55.38 -06 35 59.7
 2016-Oct-10 19:39:00.000     13 05 16.92 -06 56 42.7
 2016-Oct-11 17:33:54.000     13 08 38.85 -07 17 20.9
 2016-Oct-12 15:28:48.000     13 12 01.18 -07 37 54.1
 2016-Oct-13 13:23:42.000     13 15 23.93 -07 58 21.9
 2016-Oct-14 11:18:36.000     13 18 47.11 -08 18 44.2
 2016-Oct-15 09:13:30.000     13 22 10.75 -08 39 00.6
 2016-Oct-16 07:08:24.000     13 25 34.85 -08 59 10.9
 2016-Oct-17 05:03:18.000     13 28 59.43 -09 19 14.7
 2016-Oct-18 02:58:12.000     13 32 24.52 -09 39 11.9
 2016-Oct-19 00:53:06.000     13 35 50.12 -09 59 02.1
 2016-Oct-19 22:48:00.000     13 39 16.26 -10 18 45.0
 2016-Oct-20 20:42:54.000     13 42 42.96 -10 38 20.4
 2016-Oct-21 18:37:48.000     13 46 10.21 -10 57 48.0
 2016-Oct-22 16:32:42.000     13 49 38.04 -11 17 07.5
 2016-Oct-23 14:27:36.000     13 53 06.45 -11 36 18.5
 2016-Oct-24 12:22:30.000     13 56 35.47 -11 55 20.9
 2016-Oct-25 10:17:24.000     14 00 05.09 -12 14 14.2
 2016-Oct-26 08:12:18.000     14 03 35.32 -12 32 58.2
 2016-Oct-27 06:07:12.000     14 07 06.18 -12 51 32.6
 2016-Oct-28 04:02:06.000     14 10 37.67 -13 09 57.0
 2016-Oct-29 01:57:00.000     14 14 09.80 -13 28 11.1
 2016-Oct-29 23:51:54.000     14 17 42.58 -13 46 14.7
 2016-Oct-30 21:46:48.000     14 21 16.00 -14 04 07.3
 2016-Oct-31 19:41:42.000     14 24 50.08 -14 21 48.7
 2016-Nov-01 17:36:36.000     14 28 24.82 -14 39 18.6
 2016-Nov-02 15:31:30.000     14 32 00.23 -14 56 36.6
 2016-Nov-03 13:26:24.000     14 35 36.31 -15 13 42.4
 2016-Nov-04 11:21:18.000     14 39 13.05 -15 30 35.8
 2016-Nov-05 09:16:12.000     14 42 50.48 -15 47 16.3
 2016-Nov-06 07:11:06.000     14 46 28.58 -16 03 43.7
 2016-Nov-07 05:06:00.000     14 50 07.37 -16 19 57.6
 2016-Nov-08 03:00:54.000     14 53 46.84 -16 35 57.8
 2016-Nov-09 00:55:48.000     14 57 27.00 -16 51 43.9
 2016-Nov-09 22:50:42.000     15 01 07.85 -17 07 15.7
 2016-Nov-10 20:45:36.000     15 04 49.38 -17 22 32.7
 2016-Nov-11 18:40:30.000     15 08 31.61 -17 37 34.8
 2016-Nov-12 16:35:24.000     15 12 14.54 -17 52 21.6
 2016-Nov-13 14:30:18.000     15 15 58.17 -18 06 52.8
 2016-Nov-14 12:25:12.000     15 19 42.49 -18 21 08.2
 2016-Nov-15 10:20:06.000     15 23 27.53 -18 35 07.5
 2016-Nov-16 08:15:00.000     15 27 13.27 -18 48 50.3
 2016-Nov-17 06:09:54.000     15 30 59.71 -19 02 16.4
 2016-Nov-18 04:04:48.000     15 34 46.87 -19 15 25.6
 2016-Nov-19 01:59:42.000     15 38 34.72 -19 28 17.5
 2016-Nov-19 23:54:36.000     15 42 23.28 -19 40 51.9
 2016-Nov-20 21:49:30.000     15 46 12.53 -19 53 08.4
 2016-Nov-21 19:44:24.000     15 50 02.47 -20 05 06.9
 2016-Nov-22 17:39:18.000     15 53 53.09 -20 16 47.1
 2016-Nov-23 15:34:12.000     15 57 44.38 -20 28 08.6
 2016-Nov-24 13:29:06.000     16 01 36.33 -20 39 11.3
 2016-Nov-25 11:24:00.000     16 05 28.92 -20 49 54.8
 2016-Nov-26 09:18:54.000     16 09 22.15 -21 00 18.9
 2016-Nov-27 07:13:48.000     16 13 16.00 -21 10 23.3
 2016-Nov-28 05:08:42.000     16 17 10.45 -21 20 07.8
 2016-Nov-29 03:03:36.000     16 21 05.49 -21 29 32.1
 2016-Nov-30 00:58:30.000     16 25 01.11 -21 38 36.1
 2016-Nov-30 22:53:24.000     16 28 57.27 -21 47 19.4
 2016-Dec-01 20:48:18.000     16 32 53.98 -21 55 41.9
 2016-Dec-02 18:43:12.000     16 36 51.20 -22 03 43.3
 2016-Dec-03 16:38:06.000     16 40 48.91 -22 11 23.4
 2016-Dec-04 14:33:00.000     16 44 47.11 -22 18 42.0
 2016-Dec-05 12:27:54.000     16 48 45.76 -22 25 39.0
 2016-Dec-06 10:22:48.000     16 52 44.84 -22 32 14.1
 2016-Dec-07 08:17:42.000     16 56 44.33 -22 38 27.1
 2016-Dec-08 06:12:36.000     17 00 44.22 -22 44 18.0
 2016-Dec-09 04:07:30.000     17 04 44.48 -22 49 46.5
 2016-Dec-10 02:02:24.000     17 08 45.09 -22 54 52.4
 2016-Dec-10 23:57:18.000     17 12 46.02 -22 59 35.7
 2016-Dec-11 21:52:12.000     17 16 47.26 -23 03 56.3
 2016-Dec-12 19:47:06.000     17 20 48.79 -23 07 53.9
 2016-Dec-13 17:42:00.000     17 24 50.59 -23 11 28.5
 2016-Dec-14 15:36:54.000     17 28 52.64 -23 14 40.0
 2016-Dec-15 13:31:48.000     17 32 54.92 -23 17 28.4
 2016-Dec-16 11:26:42.000     17 36 57.40 -23 19 53.5
 2016-Dec-17 09:21:36.000     17 41 00.07 -23 21 55.2
 2016-Dec-18 07:16:30.000     17 45 02.91 -23 23 33.6
 2016-Dec-19 05:11:24.000     17 49 05.88 -23 24 48.5
 2016-Dec-20 03:06:18.000     17 53 08.98 -23 25 39.9
 2016-Dec-21 01:01:12.000     17 57 12.16 -23 26 07.8
 2016-Dec-21 22:56:06.000     18 01 15.40 -23 26 12.2
 2016-Dec-22 20:51:00.000     18 05 18.69 -23 25 53.0
 2016-Dec-23 18:45:54.000     18 09 21.98 -23 25 10.3
 2016-Dec-24 16:40:48.000     18 13 25.25 -23 24 04.1
 2016-Dec-25 14:35:42.000     18 17 28.48 -23 22 34.3
 2016-Dec-26 12:30:36.000     18 21 31.64 -23 20 41.1
